{"type": "FeatureCollection", "features": [ {"type": "Feature", "properties": {"norad_id": 66806, "name": "STARLINK-36069", "group": "last-30-days", "lat": -37.735159641786325, "lon": 164.36222303733146, "alt_km": 351.14391505553704, "timestamp": "2025-12-17T21:39:44.491623+00:00", "meta": {"OBJECT_NAME": "STARLINK-36069", "OBJECT_ID": "2025-278R", "EPOCH": "2025-12-17T14:00:03.000384", "MEAN_MOTION": 15.74770605, "ECCENTRICITY": 0.00015656, "INCLINATION": 42.9989, "RA_OF_ASC_NODE": 222.4479, "ARG_OF_PERICENTER": 260.3627, "MEAN_ANOMALY": 24.5852, "EPHEMERIS_TYPE": 0, "CLASSIFICATION_TYPE": "U", "NORAD_CAT_ID": 66806, "ELEMENT_SET_NO": 999, "REV_AT_EPOCH": 352, "BSTAR": -0.014044124, "MEAN_MOTION_DOT": -0.01860219, "MEAN_MOTION_DDOT": 0}, "tle": {"line1": "1 66806U 25278R   25351.58336806 -.01860219  00000+0 -14044-1 0  9997", "line2": "2 66806  42.9989 222.4479 0001565 260.3627  24.5852 15.74770605  3520"}}, "geometry": {"type": "Point", "coordinates": [164.36222303733146, -37.735159641786325]}}, {"type": "Feature", "properties": {"norad_id": 66807, "name": "STARLINK-36000", "group": "last-30-days", "lat": -35.369654884462, "lon": 170.8746691300556, "alt_km": 350.9989533371763, "timestamp": "2025-12-17T21:39:44.491633+00:00", "meta": {"OBJECT_NAME": "STARLINK-36000", "OBJECT_ID": "2025-278S", "EPOCH": "2025-12-17T14:00:03.000384", "MEAN_MOTION": 15.74753245, "ECCENTRICITY": 0.00017956, "INCLINATION": 42.999, "RA_OF_ASC_NODE": 222.4341, "ARG_OF_PERICENTER": 260.6995, "MEAN_ANOMALY": 30.0179, "EPHEMERIS_TYPE": 0, "CLASSIFICATION_TYPE": "U", "NORAD_CAT_ID": 66807, "ELEMENT_SET_NO": 999, "REV_AT_EPOCH": 379, "BSTAR": -0.01396151, "MEAN_MOTION_DOT": -0.01849674, "MEAN_MOTION_DDOT": 0}, "tle": {"line1": "1 66807U 25278S   25351.58336806 -.01849674  00000+0 -13962-1 0  9998", "line2": "2 66807  42.9990 222.4341 0001795 260.6995  30.0179 15.74753245  3791"}}, "geometry": {"type": "Point", "coordinates": [170.8746691300556, -35.369654884462]}}, {"type": "Feature", "properties": {"norad_id": 66808, "name": "STARLINK-36071", "group": "last-30-days", "lat": -34.50454369303485, "lon": 172.95783356031464, "alt_km": 350.99660134873284, "timestamp": "2025-12-17T21:39:44.491642+00:00", "meta": {"OBJECT_NAME": "STARLINK-36071", "OBJECT_ID": "2025-278T", "EPOCH": "2025-12-17T14:00:03.000384", "MEAN_MOTION": 15.7471868, "ECCENTRICITY": 0.00018302, "INCLINATION": 42.9988, "RA_OF_ASC_NODE": 222.4292, "ARG_OF_PERICENTER": 260.2143, "MEAN_ANOMALY": 32.446, "EPHEMERIS_TYPE": 0, "CLASSIFICATION_TYPE": "U", "NORAD_CAT_ID": 66808, "ELEMENT_SET_NO": 999, "REV_AT_EPOCH": 373, "BSTAR": -0.013678606, "MEAN_MOTION_DOT": -0.01814588, "MEAN_MOTION_DDOT": 0}, "tle": {"line1": "1 66808U 25278T   25351.58336806 -.01814588  00000+0 -13679-1 0  9990", "line2": "2 66808  42.9988 222.4292 0001830 260.2143  32.4460 15.74718680  3732"}}, "geometry": {"type": "Point", "coordinates": [172.95783356031464, -34.50454369303485]}}, {"type": "Feature", "properties": {"norad_id": 66809, "name": "STARLINK-35979", "group": "last-30-days", "lat": -31.715360108221883, "lon": 178.93333752030736, "alt_km": 350.99542666248817, "timestamp": "2025-12-17T21:39:44.491651+00:00", "meta": {"OBJECT_NAME": "STARLINK-35979", "OBJECT_ID": "2025-278U", "EPOCH": "2025-12-17T14:00:03.000384", "MEAN_MOTION": 15.74763701, "ECCENTRICITY": 0.00015957, "INCLINATION": 42.9986, "RA_OF_ASC_NODE": 222.4139, "ARG_OF_PERICENTER": 261.0008, "MEAN_ANOMALY": 37.3738, "EPHEMERIS_TYPE": 0, "CLASSIFICATION_TYPE": "U", "NORAD_CAT_ID": 66809, "ELEMENT_SET_NO": 999, "REV_AT_EPOCH": 373, "BSTAR": -0.014006401, "MEAN_MOTION_DOT": -0.01855411, "MEAN_MOTION_DDOT": 0}, "tle": {"line1": "1 66809U 25278U   25351.58336806 -.01855411  00000+0 -14006-1 0  9996", "line2": "2 66809  42.9986 222.4139 0001595 261.0008  37.3738 15.74763701  3734"}}, "geometry": {"type": "Point", "coordinates": [178.93333752030736, -31.715360108221883]}}, {"type": "Feature", "properties": {"norad_id": 66810, "name": "STARLINK-36046", "group": "last-30-days", "lat": -33.60818413689879, "lon": 174.99014627736082, "alt_km": 351.0158179285463, "timestamp": "2025-12-17T21:39:44.491660+00:00", "meta": {"OBJECT_NAME": "STARLINK-36046", "OBJECT_ID": "2025-278V", "EPOCH": "2025-12-17T14:00:03.000384", "MEAN_MOTION": 15.74772477, "ECCENTRICITY": 0.00017542, "INCLINATION": 42.9989, "RA_OF_ASC_NODE": 222.4245, "ARG_OF_PERICENTER": 258.1887, "MEAN_ANOMALY": 36.3464, "EPHEMERIS_TYPE": 0, "CLASSIFICATION_TYPE": "U", "NORAD_CAT_ID": 66810, "ELEMENT_SET_NO": 999, "REV_AT_EPOCH": 350, "BSTAR": -0.014096449, "MEAN_MOTION_DOT": -0.0186654, "MEAN_MOTION_DDOT": 0}, "tle": {"line1": "1 66810U 25278V   25351.58336806 -.01866540  00000+0 -14096-1 0  9992", "line2": "2 66810  42.9989 222.4245 0001754 258.1887  36.3464 15.74772477  3506"}}, "geometry": {"type": "Point", "coordinates": [174.99014627736082, -33.60818413689879]}}, {"type": "Feature", "properties": {"norad_id": 66811, "name": "STARLINK-36045", "group": "last-30-days", "lat": -32.678940739087494, "lon": 176.97957552505093, "alt_km": 350.91092685661806, "timestamp": "2025-12-17T21:39:44.491669+00:00", "meta": {"OBJECT_NAME": "STARLINK-36045", "OBJECT_ID": "2025-278W", "EPOCH": "2025-12-17T14:00:03.000384", "MEAN_MOTION": 15.74767307, "ECCENTRICITY": 0.00018144, "INCLINATION": 42.9989, "RA_OF_ASC_NODE": 222.4193, "ARG_OF_PERICENTER": 260.621, "MEAN_ANOMALY": 35.8283, "EPHEMERIS_TYPE": 0, "CLASSIFICATION_TYPE": "U", "NORAD_CAT_ID": 66811, "ELEMENT_SET_NO": 999, "REV_AT_EPOCH": 373, "BSTAR": -0.014004529, "MEAN_MOTION_DOT": -0.01855647, "MEAN_MOTION_DDOT": 0}, "tle": {"line1": "1 66811U 25278W   25351.58336806 -.01855647  00000+0 -14005-1 0  9999", "line2": "2 66811  42.9989 222.4193 0001814 260.6210  35.8283 15.74767307  3738"}}, "geometry": {"type": "Point", "coordinates": [176.97957552505093, -32.678940739087494]}}, {"type": "Feature", "properties": {"norad_id": 66812, "name": "STARLINK-36054", "group": "last-30-days", "lat": -30.723806446149606, "lon": -179.15484480975834, "alt_km": 350.8127830036001, "timestamp": "2025-12-17T21:39:44.491678+00:00", "meta": {"OBJECT_NAME": "STARLINK-36054", "OBJECT_ID": "2025-278X", "EPOCH": "2025-12-17T14:00:03.000384", "MEAN_MOTION": 15.74760861, "ECCENTRICITY": 0.00018509, "INCLINATION": 42.9986, "RA_OF_ASC_NODE": 222.4095, "ARG_OF_PERICENTER": 262.882, "MEAN_ANOMALY": 37.4101, "EPHEMERIS_TYPE": 0, "CLASSIFICATION_TYPE": "U", "NORAD_CAT_ID": 66812, "ELEMENT_SET_NO": 999, "REV_AT_EPOCH": 373, "BSTAR": -0.01398492, "MEAN_MOTION_DOT": -0.01852963, "MEAN_MOTION_DDOT": 0}, "tle": {"line1": "1 66812U 25278X   25351.58336806 -.01852963  00000+0 -13985-1 0  9994", "line2": "2 66812  42.9986 222.4095 0001850 262.8820  37.4101 15.74760861  3733"}}, "geometry": {"type": "Point", "coordinates": [-179.15484480975834, -30.723806446149606]}}, {"type": "Feature", "properties": {"norad_id": 66813, "name": "STARLINK-36042", "group": "last-30-days", "lat": -29.704969118508245, "lon": -177.28389823080758, "alt_km": 350.80967066340963, "timestamp": "2025-12-17T21:39:44.491687+00:00", "meta": {"OBJECT_NAME": "STARLINK-36042", "OBJECT_ID": "2025-278Y", "EPOCH": "2025-12-17T14:00:03.000384", "MEAN_MOTION": 15.7476472, "ECCENTRICITY": 0.00018124, "INCLINATION": 42.9986, "RA_OF_ASC_NODE": 222.4043, "ARG_OF_PERICENTER": 262.2872, "MEAN_ANOMALY": 39.9184, "EPHEMERIS_TYPE": 0, "CLASSIFICATION_TYPE": "U", "NORAD_CAT_ID": 66813, "ELEMENT_SET_NO": 999, "REV_AT_EPOCH": 373, "BSTAR": -0.014008589, "MEAN_MOTION_DOT": -0.01855929, "MEAN_MOTION_DDOT": 0}, "tle": {"line1": "1 66813U 25278Y   25351.58336806 -.01855929  00000+0 -14009-1 0  9998", "line2": "2 66813  42.9986 222.4043 0001812 262.2872  39.9184 15.74764720  3732"}}, "geometry": {"type": "Point", "coordinates": [-177.28389823080758, -29.704969118508245]}}, {"type": "Feature", "properties": {"norad_id": 66814, "name": "STARLINK-35984", "group": "last-30-days", "lat": -23.099456193120464, "lon": -166.80101563244926, "alt_km": 350.5144363374711, "timestamp": "2025-12-17T21:39:44.491696+00:00", "meta": {"OBJECT_NAME": "STARLINK-35984", "OBJECT_ID": "2025-278Z", "EPOCH": "2025-12-17T14:00:03.000384", "MEAN_MOTION": 15.74763014, "ECCENTRICITY": 0.00018847, "INCLINATION": 42.9987, "RA_OF_ASC_NODE": 222.3753, "ARG_OF_PERICENTER": 263.3195, "MEAN_ANOMALY": 50.3855, "EPHEMERIS_TYPE": 0, "CLASSIFICATION_TYPE": "U", "NORAD_CAT_ID": 66814, "ELEMENT_SET_NO": 999, "REV_AT_EPOCH": 382, "BSTAR": -0.013964833, "MEAN_MOTION_DOT": -0.01850832, "MEAN_MOTION_DDOT": 0}, "tle": {"line1": "1 66814U 25278Z   25351.58336806 -.01850832  00000+0 -13965-1 0  9997", "line2": "2 66814  42.9987 222.3753 0001884 263.3195  50.3855 15.74763014  3827"}}, "geometry": {"type": "Point", "coordinates": [-166.80101563244926, -23.099456193120464]}}, {"type": "Feature", "properties": {"norad_id": 66815, "name": "STARLINK-35985", "group": "last-30-days", "lat": -24.25035387265924, "lon": -168.46564047100915, "alt_km": 350.67495823429, "timestamp": "2025-12-17T21:39:44.491708+00:00", "meta": {"OBJECT_NAME": "STARLINK-35985", "OBJECT_ID": "2025-278AA", "EPOCH": "2025-12-17T14:00:03.000384", "MEAN_MOTION": 15.74768672, "ECCENTRICITY": 0.00018157, "INCLINATION": 42.9988, "RA_OF_ASC_NODE": 222.3797, "ARG_OF_PERICENTER": 259.8302, "MEAN_ANOMALY": 51.958, "EPHEMERIS_TYPE": 0, "CLASSIFICATION_TYPE": "U", "NORAD_CAT_ID": 66815, "ELEMENT_SET_NO": 999, "REV_AT_EPOCH": 382, "BSTAR": -0.014043589, "MEAN_MOTION_DOT": -0.01860244, "MEAN_MOTION_DDOT": 0}, "tle": {"line1": "1 66815U 25278AA  25351.58336806 -.01860244  00000+0 -14044-1 0  9995", "line2": "2 66815  42.9988 222.3797 0001815 259.8302  51.9580 15.74768672  3828"}}, "geometry": {"type": "Point", "coordinates": [-168.46564047100915, -24.25035387265924]}}]}